{
  "norad_id": 68005,
  "name": "STARLINK-36910",
  "history": [
    {
      "epoch": "2026-03-28T22:00:01.999584",
      "apogee_km": 481.71247148835846,
      "perigee_km": 479.52384271772735,
      "latitude_deg": 35.18569644235539,
      "longitude_deg": -11.497778240125626,
      "semi_major_axis_km": 6858.755157103043,
      "eccentricity": 0.00015955,
      "inclination_deg": 42.9994,
      "raan_deg": 300.5977,
      "arg_perigee_deg": 268.6467,
      "mean_anomaly_deg": 355.6198,
      "mean_motion_rev_day": 15.28392199
    },
    {
      "epoch": "2026-03-29T04:00:01.999584",
      "apogee_km": 481.88964387672695,
      "perigee_km": 479.28470043614107,
      "latitude_deg": -4.293257192483397,
      "longitude_deg": 12.502221759874374,
      "semi_major_axis_km": 6858.724172156433,
      "eccentricity": 0.0001899,
      "inclination_deg": 42.9995,
      "raan_deg": 299.1827,
      "arg_perigee_deg": 270.6869,
      "mean_anomaly_deg": 290.7758,
      "mean_motion_rev_day": 15.28402556
    }
  ]
}